COSMOS_2527-756
1 43508U 18053A   23123.78533044  .00000081  00000+0  00000+0 0  9999
2 43508  65.0546 112.0940 0009977 243.7656 118.6041  2.13102465 37971
